{"type":"FeatureCollection","features":[{"type":"Feature","properties":{"WKR_NR":75,"WKR_NAME":"Berlin-Mitte","LAND_NR":11,"LAND_NAME":"Berlin"},"geometry":{"type":"Polygon","coordinates":[[[13.35,52.5],[13.42,52.5],[13.42,52.54],[13.35,52.54],[13.35,52.5]]]}},{"type":"Feature","properties":{"WKR_NR":76,"WKR_NAME":"Berlin-Pankow","LAND_NR":11,"LAND_NAME":"Berlin"},"geometry":{"type":"Polygon","coordinates":[[[13.38,52.54],[13.48,52.54],[13.48,52.6],[13.38,52.6],[13.38,52.54]]]}},{"type":"Feature","properties":{"WKR_NR":1,"WKR_NAME":"Flensburg – Schleswig","LAND_NR":1,"LAND_NAME":"Schleswig-Holstein"},"geometry":{"type":"Polygon","coordinates":[[[9.4,54.7],[9.6,54.7],[9.6,54.9],[9.4,54.9],[9.4,54.7]]]}},{"type":"Feature","properties":{"WKR_NR":258,"WKR_NAME":"Muenchen-Nord","LAND_NR":9,"LAND_NAME":"Bayern"},"geometry":{"type":"Polygon","coordinates":[[[11.5,48.15],[11.6,48.15],[11.6,48.22],[11.5,48.22],[11.5,48.15]]]}},{"type":"Feature","properties":{"WKR_NR":93,"WKR_NAME":"Koeln I","LAND_NR":5,"LAND_NAME":"Nordrhein-Westfalen"},"geometry":{"type":"Polygon","coordinates":[[[6.92,50.92],[7,50.92],[7,50.97],[6.92,50.97],[6.92,50.92]]]}}]}